Name ,Phone_Number,Email,Password,Address,City ,State,Pincode
prosacco lucile,9881242879,prosacco.lucile@hotmail.com,WU157V,"4 Morrow Avenue, Hornsea,HU18 1JD",Chennai,Tamilnadu,600006
Louise Kinser  ,4675725730,isabelle.fritsch@dare.net,GV789Z,"14 Hams Close, Biddulph,ST8 6PR",Delhi,New delhi,110025
Antoinette Zeman  ,2359329844,hodkiewicz.dell@hotmail.com,VZ187M,"3 Sheridan Close, Aylesbury,HP21 9HL",Delhi,New delhi,110076
Peggy Denson  ,3401956704,schmitt.braden@gmail.com,US790R,"2 Claypit Farm, Claypit Lane, Froxfield,GU32 1DD",Karnatka,Banglore,560076
Marita Behrens  ,7188279742,sandy46@balistreri.com,YJ979S,"Flat 10, Grace Court, 12 Hampton Road, Twickenham,TW2 5QD",Mumbai,Maharashtra,400012
Scarlet Topete  ,7811591246,zboncak.ashlynn@yahoo.com,BI193H,"Woodlands, Church Road, Harrietsham,ME17 1AP",Mumbai,Maharashtra,400056
Fredrick Goheen  ,6678367815,harvey.genoveva@beier.com,CO237L,"1871 Coventry Road, Sheldon,B26 1JP",Uttarpradesh,Lucknow,226014
Sharan Luis  ,8385822179,allie.hermann@gmail.com,SF459N,"82 Burdett Avenue, Westcliff-On-Sea,SS0 7JW",Banglore,Banglore,560017
Winter Ranney  ,2932838726,jennifer25@gmail.com,AG990A,"Sideways, Lammins Lane, Mareham Le Fen,PE22 7QE",Delhi,Saket,110017
Leontine Greenawalt  ,4911406260,schuppe.chelsea@gmail.com,BL483V,"3 Green Gardens, Rhayader,LD6 5EH",Banglore,Banglore,560055
Loree Askins  ,3017314177,yhills@hotmail.com,TZ838H,"14C Collingham Place, London,SW5 0PZ",Mumbai,Maharashtra,411001
Carlyn Litt  ,2413915940,chase.bradtke@yahoo.com,UC295R,"12 Berkley Street, Liverpool,L8 1XB",Vellore,Tamilnadu,632004
Marion Maxwell  ,8844806463,akoss@spinka.com,KE863M,"1 Audmore Court, Knightley Road, Gnosall,ST20 0HA",Gorimedu,Puducherry,605006
Nicholle Kunkel  ,5179978869,liliane.howe@yahoo.com,BC398F,"Tyn Y Graig, Llanbedrgoch,LL76 8TX",Telangana,Hyderabad,500081
Cindie Plewa  ,4597674285,hartmann.carmela@yahoo.com,WP751E,"8 Old Auction Yard, Chatteris,PE16 6BG",Faridabad,Faridabad,201301
Keri Smiley  ,1709782764,terrence04@little.net,HG302N,"Anchor Vehicle Hire, Richardshaw Road, Pudsey,LS28 6QW",Chandigargh,Chandigarh,160012
Violeta Brakebill  ,1321662038,melany.lang@osinski.com,XE675B,"Willow House, Brampton Wood, Newcastle,ST5 0GP",Delhi,New delhi,110024
Min Dangerfield  ,6779929508,xbauch@yahoo.com,NB420N,"1 Withnell Road, Manchester,M19 1GH",Haryana,Gurgoan,122001
Rosalinda Haydel  ,2925541964,mckenna.koss@yahoo.com,AZ901N,"Arthuret House, Arthuret Road, Longtown,CA6 5SJ",Mumbai,Maharashtra,400012
Tammera Bloss  ,8442734699,arlie.osinski@hotmail.com,GB701J,"29 Meadow Drive, Harrogate,HG1 3LD",Mumbai,Maharashtra,400053
Lena Veiga  ,3751062788,ernie76@runolfsdottir.com,DC215M,"27 - 28 Westover Road, Bournemouth,BH1 2BZ",Uttarpradesh,Lucknow,226001
Brooke Stclair  ,7059864835,yundt.verla@hotmail.com,EB391J,"25 Sheringham Road, Birmingham,B30 3RE",Karnatka,Banglore,560099
Ike Hertzog  ,1196372766,nikolaus.tina@yahoo.com,DZ523Y,"The New House, Meadow Way, Churchdown,GL3 2AU",Andhra pradesh,Andhra pradesh,506001
Ilda Hervey  ,6404819160,olga45@stoltenberg.biz,OB158K,"Red Bank Barn, Silverdale Road, Yealand Redmayne,LA5 9TA",Delhi,New delhi,110060
Wade Paez  ,9731429265,jaquan.bruen@gmail.com,YM884D,"Fairseat, Bossiney Road, Tintagel,PL34 0AH",Mumbai,Maharashtra,400016
Hermina Ryans  ,7533029735,maudie.gutkowski@gmail.com,GD826Z,"3 Carisbrooke, Tamworth,B77 2EP",Delhi,New delhi,110033
Mona Zimmer  ,1026006806,kuhlman.roderick@casper.com,KU528G,"Liverpool House, Hendy Road, Gwernymynydd,CH7 5JP",Delhi,New delhi,110015
Lennie Fogle  ,2622222281,elisha44@abshire.com,JD117I,"31 Radley Drive, Aintree,L10 3LF",Haryana,Gurgaon,122002
Phuong Riddell  ,7761918769,crist.cade@yahoo.com,QZ165J,"32 Spencer Parade, Stanwick,NN9 6QJ",Delhi,New delhi,110064
Jamee Dehner  ,9430252789,owen58@hotmail.com,YC160Y,"90 New Romney Crescent, Leicester,LE5 1NH",Chennai,Tamilnadu,600006
Samuel Sikora  ,1045622749,cheyenne30@halvorson.com,OY871I,"6 Radnor Walk, Bedford,MK41 0DB",Delhi,New delhi,110025
Barney Gudger  ,5791887699,genoveva.borer@reynolds.com,KD128E,"8 Russell House, Cressington Place, Bourne End,SL8 5SH",Delhi,New delhi,110076
Maisie Buono  ,6160818273,johnson.autumn@simonis.com,SB985I,"40 Ravenhill Road, Bristol,BS3 5BP",Karnatka,Banglore,560076
Eleonora Cobbley  ,3336986288,kgoyette@jenkins.net,IB995U,"2 Commercial Street, Gilfach,CF81 8JG",Mumbai,Maharashtra,400012
Reena Fairbanks  ,2373717972,steve76@grant.com,ND336B,"11 Marl View Terrace, Deganwy,LL31 9BJ",Mumbai,Maharashtra,400056
Marlena Gutshall  ,7608821666,fredrick.ernser@yahoo.com,SK320T,"63 Beech Road, Rochester,ME2 2LR",Uttarpradesh,Lucknow,226014
Willena Mickelsen  ,4336382048,nestor.koch@hackett.info,QL929P,"77 Bolingbroke Road, Cleethorpes,DN35 0HF",Banglore,Banglore,560017
Omar Levert  ,9709506745,hwaelchi@block.com,YG832G,"20 Thame Road, Little Milton,OX44 7PZ",Delhi,Saket,110017
Jose Iorio  ,4649865965,mavis24@leannon.com,YN722B,"11 Redwell Close, St. Ives,PE27 6NY",Banglore,Banglore,560055
Leatha Wohl  ,7736235849,mccullough.enid@kuhic.com,EJ176R,"1 Alpine Road, Ventnor,PO38 1JB",Mumbai,Maharashtra,411001
Roseanna Halvorsen  ,7014277382,fwunsch@rodriguez.com,EA832E,"41 Trevenson Street, Camborne,TR14 8JA",Vellore,Tamilnadu,632004
Nerissa Statton  ,4162134543,emayer@pacocha.info,VS249B,"Flat 5, 15 Wrotham Road, Broadstairs,CT10 1QG",Gorimedu,Puducherry,605006
Deangelo Raatz  ,4417560290,mertz.sophie@mosciski.biz,AJ605M,"9 New Road, Poole,BH12 2NQ",Telangana,Hyderabad,500081
Torie Caceres  ,7400384162,xjakubowski@gmail.com,RT259R,"Frondeg, Kidwelly,SA17 4NZ",Faridabad,Faridabad,201301
Loreen Musgrove  ,7761507192,anderson.kennedy@yahoo.com,KK319G,"Meadow House, The Cross, Berwick St John,SP7 0HA",Chandigargh,Chandigarh,160012
Romana Tello  ,2578394741,darrell96@yahoo.com,VU871I,"61 Flintcomb Rise, Northampton,NN3 8QU",Delhi,New delhi,110024
John Gatton  ,7190388798,mitchell.bret@abshire.com,LS997Z,"The Long Barn, Resoon, Gulval,TR20 8YR",Haryana,Gurgoan,122001
Otilia Yarber  ,5877449202,block.allen@cassin.com,VE925B,"Swallow House, Paddle Brook Barns, Ditchford On Fosse,GL56 9QT",Chennai,Tamilnadu,600006
Melody Zambrano  ,5948958329,hegmann.verona@dicki.biz,OG772C,"Maes Teg, Brynteg,LL78 8JG",Delhi,New delhi,110025
,,,,"24 Pine Hill, Epsom,KT18 7BG",Delhi,New delhi,110076
